[{"OBJECT_NAME":"COSMOS 2361","OBJECT_ID":"1998-076A","EPOCH":"2026-03-06T02:52:00.841152","MEAN_MOTION":13.73227088,"ECCENTRICITY":0.00322512,"INCLINATION":82.9309,"RA_OF_ASC_NODE":282.4313,"ARG_OF_PERICENTER":35.8018,"MEAN_ANOMALY":78.9482,"EPHEMERIS_TYPE":0,"CLASSIFICATION_TYPE":"U","NORAD_CAT_ID":25590,"ELEMENT_SET_NO":999,"REV_AT_EPOCH":36255,"BSTAR":5.8478002e-5,"MEAN_MOTION_DOT":7.0e-7,"MEAN_MOTION_DDOT":0},{"OBJECT_NAME":"COSMOS 2378","OBJECT_ID":"2001-023A","EPOCH":"2026-03-06T04:42:24.782688","MEAN_MOTION":13.74150759,"ECCENTRICITY":0.00325242,"INCLINATION":82.9256,"RA_OF_ASC_NODE":297.8586,"ARG_OF_PERICENTER":336.8709,"MEAN_ANOMALY":146.5323,"EPHEMERIS_TYPE":0,"CLASSIFICATION_TYPE":"U","NORAD_CAT_ID":26818,"ELEMENT_SET_NO":999,"REV_AT_EPOCH":24069,"BSTAR":6.7084594e-5,"MEAN_MOTION_DOT":7.8e-7,"MEAN_MOTION_DDOT":0},{"OBJECT_NAME":"COSMOS 2389","OBJECT_ID":"2002-026A","EPOCH":"2026-03-06T05:57:44.186976","MEAN_MOTION":13.75164119,"ECCENTRICITY":0.00462357,"INCLINATION":82.9467,"RA_OF_ASC_NODE":245.1631,"ARG_OF_PERICENTER":185.4041,"MEAN_ANOMALY":347.6921,"EPHEMERIS_TYPE":0,"CLASSIFICATION_TYPE":"U","NORAD_CAT_ID":27436,"ELEMENT_SET_NO":999,"REV_AT_EPOCH":19296,"BSTAR":5.2560019e-5,"MEAN_MOTION_DOT":6.6e-7,"MEAN_MOTION_DDOT":0},{"OBJECT_NAME":"COSMOS 2398","OBJECT_ID":"2003-023A","EPOCH":"2026-03-06T07:43:53.377248","MEAN_MOTION":13.72394991,"ECCENTRICITY":0.00303178,"INCLINATION":82.9487,"RA_OF_ASC_NODE":211.0991,"ARG_OF_PERICENTER":239.4068,"MEAN_ANOMALY":139.0208,"EPHEMERIS_TYPE":0,"CLASSIFICATION_TYPE":"U","NORAD_CAT_ID":27818,"ELEMENT_SET_NO":999,"REV_AT_EPOCH":13963,"BSTAR":5.3258473e-5,"MEAN_MOTION_DOT":6.4e-7,"MEAN_MOTION_DDOT":0},{"OBJECT_NAME":"COSMOS 2407","OBJECT_ID":"2004-028A","EPOCH":"2026-03-06T06:18:08.342784","MEAN_MOTION":13.76324639,"ECCENTRICITY":0.0039443,"INCLINATION":82.9636,"RA_OF_ASC_NODE":151.0626,"ARG_OF_PERICENTER":178.2788,"MEAN_ANOMALY":201.4186,"EPHEMERIS_TYPE":0,"CLASSIFICATION_TYPE":"U","NORAD_CAT_ID":28380,"ELEMENT_SET_NO":999,"REV_AT_EPOCH":8572,"BSTAR":8.3297326e-5,"MEAN_MOTION_DOT":9.7e-7,"MEAN_MOTION_DDOT":0},{"OBJECT_NAME":"COSMOS 2414","OBJECT_ID":"2005-002A","EPOCH":"2026-03-06T05:30:55.750752","MEAN_MOTION":13.87915037,"ECCENTRICITY":0.00386995,"INCLINATION":82.9488,"RA_OF_ASC_NODE":121.5356,"ARG_OF_PERICENTER":262.6125,"MEAN_ANOMALY":97.064,"EPHEMERIS_TYPE":0,"CLASSIFICATION_TYPE":"U","NORAD_CAT_ID":28521,"ELEMENT_SET_NO":999,"REV_AT_EPOCH":6953,"BSTAR":8.619908e-5,"MEAN_MOTION_DOT":1.18e-6,"MEAN_MOTION_DDOT":0},{"OBJECT_NAME":"COSMOS 2429","OBJECT_ID":"2007-038A","EPOCH":"2026-03-06T02:29:08.560320","MEAN_MOTION":13.75157848,"ECCENTRICITY":0.00387348,"INCLINATION":82.9772,"RA_OF_ASC_NODE":281.8659,"ARG_OF_PERICENTER":161.5059,"MEAN_ANOMALY":198.7516,"EPHEMERIS_TYPE":0,"CLASSIFICATION_TYPE":"U","NORAD_CAT_ID":32052,"ELEMENT_SET_NO":999,"REV_AT_EPOCH":92748,"BSTAR":5.1684189e-5,"MEAN_MOTION_DOT":6.5e-7,"MEAN_MOTION_DDOT":0},{"OBJECT_NAME":"COSMOS 2454","OBJECT_ID":"2009-039A","EPOCH":"2026-03-06T04:22:54.568992","MEAN_MOTION":13.89940793,"ECCENTRICITY":0.00189543,"INCLINATION":82.9531,"RA_OF_ASC_NODE":105.3928,"ARG_OF_PERICENTER":189.5591,"MEAN_ANOMALY":232.224,"EPHEMERIS_TYPE":0,"CLASSIFICATION_TYPE":"U","NORAD_CAT_ID":35635,"ELEMENT_SET_NO":999,"REV_AT_EPOCH":84309,"BSTAR":5.6225091e-5,"MEAN_MOTION_DOT":8.5e-7,"MEAN_MOTION_DDOT":0},{"OBJECT_NAME":"COSMOS 2463","OBJECT_ID":"2010-017A","EPOCH":"2026-03-06T06:37:38.623872","MEAN_MOTION":13.71657616,"ECCENTRICITY":0.00373134,"INCLINATION":82.9636,"RA_OF_ASC_NODE":325.3388,"ARG_OF_PERICENTER":56.7201,"MEAN_ANOMALY":62.6131,"EPHEMERIS_TYPE":0,"CLASSIFICATION_TYPE":"U","NORAD_CAT_ID":36519,"ELEMENT_SET_NO":999,"REV_AT_EPOCH":79382,"BSTAR":7.2199205e-5,"MEAN_MOTION_DOT":8.1e-7,"MEAN_MOTION_DDOT":0}]
