COSMOS 2361             
1 25590U 98076A   26065.11945418  .00000070  00000+0  58478-4 0  9995
2 25590  82.9309 282.4313 0032251  35.8018  78.9482 13.73227088362555
COSMOS 2378             
1 26818U 01023A   26065.19612017  .00000078  00000+0  67085-4 0  9991
2 26818  82.9256 297.8586 0032524 336.8709 146.5323 13.74150759240693
COSMOS 2389             
1 27436U 02026A   26065.24842809  .00000066  00000+0  52560-4 0  9991
2 27436  82.9467 245.1631 0046235 185.4041 347.6921 13.75164119192962
COSMOS 2398             
1 27818U 03023A   26065.32214557  .00000064  00000+0  53258-4 0  9998
2 27818  82.9487 211.0991 0030317 239.4068 139.0208 13.72394991139638
COSMOS 2407             
1 28380U 04028A   26065.26259656  .00000097  00000+0  83297-4 0  9993
2 28380  82.9636 151.0626 0039443 178.2788 201.4186 13.76324639 85720
COSMOS 2414             
1 28521U 05002A   26065.22981193  .00000118  00000+0  86199-4 0  9995
2 28521  82.9488 121.5356 0038699 262.6125  97.0640 13.87915037 69534
COSMOS 2429             
1 32052U 07038A   26065.10357130  .00000065  00000+0  51684-4 0  9997
2 32052  82.9772 281.8659 0038734 161.5059 198.7516 13.75157848927486
COSMOS 2454             
1 35635U 09039A   26065.18257603  .00000085  00000+0  56225-4 0  9990
2 35635  82.9531 105.3928 0018954 189.5591 232.2240 13.89940793843097
COSMOS 2463             
1 36519U 10017A   26065.27614148  .00000081  00000+0  72199-4 0  9995
2 36519  82.9636 325.3388 0037313  56.7201  62.6131 13.71657616793821
